OBJECT_NAME,OBJECT_ID,EPOCH,MEAN_MOTION,ECCENTRICITY,INCLINATION,RA_OF_ASC_NODE,ARG_OF_PERICENTER,MEAN_ANOMALY,EPHEMERIS_TYPE,CLASSIFICATION_TYPE,NORAD_CAT_ID,ELEMENT_SET_NO,REV_AT_EPOCH,BSTAR,MEAN_MOTION_DOT,MEAN_MOTION_DDOT
SL-8 R/B,1985-006B,2026-07-15T23:15:12.579840,14.37845580,.00192563,74.0454,25.0972,268.0412,201.3692,0,U,15483,999,17246,.48056435E-4,.119E-5,0
SL-12 R/B(2),1985-042D,2026-07-15T22:25:06.486240,14.22010991,.00373345,71.1066,176.7803,285.1003,141.4328,0,U,15772,999,13262,.34134812E-4,.28E-6,0
SL-14 R/B,1985-069B,2026-07-15T13:48:15.270336,14.86535262,.0020062,82.5262,264.6689,126.1164,234.1914,0,U,15945,999,19183,.21391E-4,.215E-5,0
SL-16 R/B,1985-097B,2026-07-15T12:31:41.666592,14.16612922,.00056585,71.0007,231.4247,51.0311,59.0637,0,U,16182,999,10533,.1075696E-3,.167E-5,0
SL-14 R/B,1986-006B,2026-07-15T22:05:17.133216,14.86968642,.00755288,82.5283,139.0753,206.4327,153.3030,0,U,16496,999,16826,.22571409E-4,.239E-5,0
COSMOS 1743,1986-034A,2026-07-15T17:33:35.360928,15.69664907,.00053934,82.5282,298.3228,175.2370,184.8944,0,U,16719,999,20026,.36371453E-3,.43247E-3,0
SL-14 R/B,1986-046B,2026-07-15T20:15:55.732320,14.85690845,.00235824,82.4839,319.0973,160.9114,199.2992,0,U,16792,999,14543,.23525029E-4,.23E-5,0
SL-14 R/B,1986-055B,2026-07-15T21:54:23.518080,14.85740566,.00173091,82.5204,6.1216,267.6789,205.7872,0,U,16882,999,13840,.21327222E-4,.21E-5,0
AJISAI (EGS),1986-061A,2026-07-15T23:18:26.836416,12.44516687,.00110817,50.0102,58.8855,253.8920,200.2463,0,U,16908,999,48397,.13274278E-3,-.78E-6,0
SL-14 R/B,1987-024B,2026-07-15T21:33:53.402400,14.86231986,.00178773,82.5298,332.2629,191.3958,168.6856,0,U,17567,999,10717,.22603081E-4,.224E-5,0
COSMOS 1833,1987-027A,2026-07-15T22:04:05.379744,14.13066813,.00242827,70.9212,56.4778,7.5382,352.6099,0,U,17589,999,2843,.65101137E-4,.74E-6,0
SL-16 R/B,1987-027B,2026-07-15T20:57:30.428640,14.17173655,.00071439,71.0033,6.3769,280.9186,79.1134,0,U,17590,999,3350,.91149712E-4,.136E-5,0
SL-14 R/B,1987-038B,2026-07-15T23:01:43.537152,14.85461771,.00208484,82.5013,175.9700,99.8575,260.4996,0,U,17912,999,9827,.21395092E-4,.21E-5,0
COSMOS 1844,1987-041A,2026-07-15T21:18:07.554816,14.14580923,.00312887,70.8998,123.7694,194.2856,165.7385,0,U,17973,999,2171,.56351969E-4,.6E-6,0
SL-14 R/B,1987-055B,2026-07-15T12:13:54.848640,14.85727162,.00193974,82.4971,228.5287,314.0050,45.9567,0,U,18153,999,8891,.20504594E-4,.203E-5,0
COSMOS 1867,1987-060A,2026-07-15T16:57:05.866560,14.31518536,.00171625,65.0119,308.1886,282.0240,77.8921,0,U,18187,999,3826,.11160832E-4,-.71E-6,0
SL-14 R/B,1988-001B,2026-07-15T04:14:46.926528,14.85626773,.00181579,82.5120,75.4399,171.8783,188.2731,0,U,18749,999,6095,.20231687E-4,.2E-5,0
COSMOS 1933,1988-020A,2026-07-15T21:27:51.818400,15.18890991,.0005914,82.5141,124.0058,105.5346,254.6541,0,U,18958,999,6968,.87933609E-4,.1866E-4,0
SL-3 R/B,1988-032B,2026-07-15T22:16:12.834048,15.21034699,.00265648,97.5273,179.9461,143.2561,217.0502,0,U,19046,999,7159,.94239444E-4,.2038E-4,0
SL-16 R/B,1988-039B,2026-07-15T22:33:22.839552,14.19631394,.00205695,71.0126,157.3604,148.1985,212.0387,0,U,19120,999,97658,-.4222456E-5,-.57E-6,0
COSMOS 1953,1988-050A,2026-07-15T22:09:09.475776,15.30343243,.00114694,82.5059,29.0449,37.6442,322.5599,0,U,19210,999,5738,.13202544E-3,.3915E-4,0
SL-8 R/B,1988-053B,2026-07-15T12:26:11.083776,14.38978369,.00197449,74.0458,236.8337,22.2710,83.1516,0,U,19257,999,99498,.47685077E-4,.121E-5,0
COSMOS 1975,1988-093A,2026-07-15T20:59:48.765408,15.29666698,.00125104,82.5199,348.8348,80.3706,279.8947,0,U,19573,999,3899,.11761825E-3,.3422E-4,0
SL-14 R/B,1988-093B,2026-07-15T18:31:29.675136,14.85760262,.00199736,82.5316,281.8106,338.3546,142.1508,0,U,19574,999,2003,.1880105E-4,.188E-5,0
SL-16 R/B,1988-102B,2026-07-15T12:59:45.715776,14.16166607,.0014282,70.9977,242.4784,185.0061,175.0921,0,U,19650,999,94499,-.20219897E-4,-.88E-6,0
INTERCOSMOS 24,1989-080A,2026-07-15T22:11:39.645888,12.59692197,.11871495,82.6050,20.9393,355.2528,3.8050,0,U,20261,999,68294,.32728126E-4,.125E-5,0
SL-14 R/B,1989-080C,2026-07-15T03:54:04.573152,12.50578472,.12287011,82.5934,91.3331,253.3658,92.9270,0,U,20262,999,67608,.20995669E-4,.72E-6,0
DELTA 1 R/B,1989-089B,2026-07-15T18:34:19.941888,14.50748041,.00706351,97.0635,23.7574,78.1906,282.7204,0,U,20323,999,91430,.40122479E-4,.128E-5,0
ARIANE 40 R/B,1990-005H,2026-07-15T17:50:16.264320,14.39940851,.00103056,98.2945,253.4692,172.4036,187.7311,0,U,20443,999,91123,.44804404E-4,.99E-6,0
DELTA 2 R/B(1),1990-008B,2026-07-15T21:49:49.232640,15.73712050,.00586335,35.5990,42.8176,22.8481,337.4852,0,U,20453,999,94622,.49382554E-3,.81052E-3,0
